{"type": "FeatureCollection", "features": [ {"type": "Feature", "properties": {"norad_id": 32289, "name": "YAOGAN-3", "group": "resource", "lat": 71.2635125410407, "lon": 2.9429174225732444, "alt_km": 590.452035934286, "timestamp": "2025-12-26T09:30:53.284405+00:00", "meta": {"OBJECT_NAME": "YAOGAN-3", "OBJECT_ID": "2007-055A", "EPOCH": "2025-12-25T23:31:04.221408", "MEAN_MOTION": 14.89920968, "ECCENTRICITY": 0.00012468, "INCLINATION": 97.8358, "RA_OF_ASC_NODE": 26.4842, "ARG_OF_PERICENTER": 85.8961, "MEAN_ANOMALY": 274.2399, "EPHEMERIS_TYPE": 0, "CLASSIFICATION_TYPE": "U", "NORAD_CAT_ID": 32289, "ELEMENT_SET_NO": 999, "REV_AT_EPOCH": 98006, "BSTAR": 0.0001541562, "MEAN_MOTION_DOT": 1.428e-05, "MEAN_MOTION_DDOT": 0}, "tle": {"line1": "1 32289U 07055A   25359.97990997  .00001428  00000+0  15416-3 0  9998", "line2": "2 32289  97.8358  26.4842 0001246  85.8961 274.2399 14.89920968980067"}}, "geometry": {"type": "Point", "coordinates": [2.9429174225732444, 71.2635125410407]}}, {"type": "Feature", "properties": {"norad_id": 32376, "name": "COSMO-SKYMED 2", "group": "resource", "lat": -27.57391841923341, "lon": -174.33766755915892, "alt_km": 628.639168741809, "timestamp": "2025-12-26T09:30:53.284417+00:00", "meta": {"OBJECT_NAME": "COSMO-SKYMED 2", "OBJECT_ID": "2007-059A", "EPOCH": "2025-12-25T23:55:07.467744", "MEAN_MOTION": 14.8215862, "ECCENTRICITY": 0.00013051, "INCLINATION": 97.8806, "RA_OF_ASC_NODE": 181.1208, "ARG_OF_PERICENTER": 83.119, "MEAN_ANOMALY": 277.0172, "EPHEMERIS_TYPE": 0, "CLASSIFICATION_TYPE": "U", "NORAD_CAT_ID": 32376, "ELEMENT_SET_NO": 999, "REV_AT_EPOCH": 97634, "BSTAR": 7.4781535e-05, "MEAN_MOTION_DOT": 5.43e-06, "MEAN_MOTION_DDOT": 0}, "tle": {"line1": "1 32376U 07059A   25359.99661421  .00000543  00000+0  74782-4 0  9997", "line2": "2 32376  97.8806 181.1208 0001305  83.1190 277.0172 14.82158620976345"}}, "geometry": {"type": "Point", "coordinates": [-174.33766755915892, -27.57391841923341]}}, {"type": "Feature", "properties": {"norad_id": 32382, "name": "RADARSAT-2", "group": "resource", "lat": -59.566859436465805, "lon": 169.8963695242669, "alt_km": 799.6183222631626, "timestamp": "2025-12-26T09:30:53.284428+00:00", "meta": {"OBJECT_NAME": "RADARSAT-2", "OBJECT_ID": "2007-061A", "EPOCH": "2025-12-25T23:59:47.344992", "MEAN_MOTION": 14.29984851, "ECCENTRICITY": 0.00011168, "INCLINATION": 98.5798, "RA_OF_ASC_NODE": 4.3968, "ARG_OF_PERICENTER": 85.8212, "MEAN_ANOMALY": 274.3098, "EPHEMERIS_TYPE": 0, "CLASSIFICATION_TYPE": "U", "NORAD_CAT_ID": 32382, "ELEMENT_SET_NO": 999, "REV_AT_EPOCH": 94120, "BSTAR": -3.429198e-06, "MEAN_MOTION_DOT": -5.2e-07, "MEAN_MOTION_DDOT": 0}, "tle": {"line1": "1 32382U 07061A   25359.99985353 -.00000052  00000+0 -34292-5 0  9990", "line2": "2 32382  98.5798   4.3968 0001116  85.8212 274.3098 14.29984851941201"}}, "geometry": {"type": "Point", "coordinates": [169.8963695242669, -59.566859436465805]}}, {"type": "Feature", "properties": {"norad_id": 32783, "name": "CARTOSAT-2A", "group": "resource", "lat": -45.12360348615938, "lon": 57.695079276767586, "alt_km": 631.7468313458103, "timestamp": "2025-12-26T09:30:53.284440+00:00", "meta": {"OBJECT_NAME": "CARTOSAT-2A", "OBJECT_ID": "2008-021A", "EPOCH": "2025-12-26T04:50:57.162336", "MEAN_MOTION": 14.78954977, "ECCENTRICITY": 0.0010916, "INCLINATION": 97.7908, "RA_OF_ASC_NODE": 49.6034, "ARG_OF_PERICENTER": 319.7393, "MEAN_ANOMALY": 40.3009, "EPHEMERIS_TYPE": 0, "CLASSIFICATION_TYPE": "U", "NORAD_CAT_ID": 32783, "ELEMENT_SET_NO": 999, "REV_AT_EPOCH": 95323, "BSTAR": 8.9725e-05, "MEAN_MOTION_DOT": 6.12e-06, "MEAN_MOTION_DDOT": 0}, "tle": {"line1": "1 32783U 08021A   25360.20205049  .00000612  00000+0  89725-4 0  9995", "line2": "2 32783  97.7908  49.6034 0010916 319.7393  40.3009 14.78954977953232"}}, "geometry": {"type": "Point", "coordinates": [57.695079276767586, -45.12360348615938]}}, {"type": "Feature", "properties": {"norad_id": 33320, "name": "HUANJING 1A (HJ-1A)", "group": "resource", "lat": 38.68064196496491, "lon": -18.056457673729074, "alt_km": 606.7501110590583, "timestamp": "2025-12-26T09:30:53.284476+00:00", "meta": {"OBJECT_NAME": "HUANJING 1A (HJ-1A)", "OBJECT_ID": "2008-041A", "EPOCH": "2025-12-26T04:28:59.352384", "MEAN_MOTION": 14.83435533, "ECCENTRICITY": 0.0019119, "INCLINATION": 97.6552, "RA_OF_ASC_NODE": 347.9242, "ARG_OF_PERICENTER": 351.3642, "MEAN_ANOMALY": 8.724, "EPHEMERIS_TYPE": 0, "CLASSIFICATION_TYPE": "U", "NORAD_CAT_ID": 33320, "ELEMENT_SET_NO": 999, "REV_AT_EPOCH": 93275, "BSTAR": 0.00023251, "MEAN_MOTION_DOT": 1.864e-05, "MEAN_MOTION_DDOT": 0}, "tle": {"line1": "1 33320U 08041A   25360.18679806  .00001864  00000+0  23251-3 0  9999", "line2": "2 33320  97.6552 347.9242 0019119 351.3642   8.7240 14.83435533932759"}}, "geometry": {"type": "Point", "coordinates": [-18.056457673729074, 38.68064196496491]}}, {"type": "Feature", "properties": {"norad_id": 33321, "name": "HUANJING 1B (HJ-1B)", "group": "resource", "lat": -51.10785694891224, "lon": 162.20645751057813, "alt_km": 652.1668320801737, "timestamp": "2025-12-26T09:30:53.284512+00:00", "meta": {"OBJECT_NAME": "HUANJING 1B (HJ-1B)", "OBJECT_ID": "2008-041B", "EPOCH": "2025-12-26T05:14:04.570080", "MEAN_MOTION": 14.82859169, "ECCENTRICITY": 0.0037683, "INCLINATION": 97.641, "RA_OF_ASC_NODE": 351.6158, "ARG_OF_PERICENTER": 33.0581, "MEAN_ANOMALY": 327.2977, "EPHEMERIS_TYPE": 0, "CLASSIFICATION_TYPE": "U", "NORAD_CAT_ID": 33321, "ELEMENT_SET_NO": 999, "REV_AT_EPOCH": 93277, "BSTAR": 0.00027536, "MEAN_MOTION_DOT": 2.206e-05, "MEAN_MOTION_DDOT": 0}, "tle": {"line1": "1 33321U 08041B   25360.21810845  .00002206  00000+0  27536-3 0  9995", "line2": "2 33321  97.6410 351.6158 0037683  33.0581 327.2977 14.82859169932775"}}, "geometry": {"type": "Point", "coordinates": [162.20645751057813, -51.10785694891224]}}, {"type": "Feature", "properties": {"norad_id": 33331, "name": "GEOEYE 1", "group": "resource", "lat": 48.66188796655144, "lon": 62.159635562874655, "alt_km": 675.7498085805819, "timestamp": "2025-12-26T09:30:53.284529+00:00", "meta": {"OBJECT_NAME": "GEOEYE 1", "OBJECT_ID": "2008-042A", "EPOCH": "2025-12-26T02:43:55.807104", "MEAN_MOTION": 14.64717692, "ECCENTRICITY": 0.0003049, "INCLINATION": 98.1236, "RA_OF_ASC_NODE": 71.2251, "ARG_OF_PERICENTER": 227.1218, "MEAN_ANOMALY": 132.9729, "EPHEMERIS_TYPE": 0, "CLASSIFICATION_TYPE": "U", "NORAD_CAT_ID": 33331, "ELEMENT_SET_NO": 999, "REV_AT_EPOCH": 92481, "BSTAR": 0.00011804, "MEAN_MOTION_DOT": 5.81e-06, "MEAN_MOTION_DDOT": 0}, "tle": {"line1": "1 33331U 08042A   25360.11384036  .00000581  00000+0  11804-3 0  9999", "line2": "2 33331  98.1236  71.2251 0003049 227.1218 132.9729 14.64717692924815"}}, "geometry": {"type": "Point", "coordinates": [62.159635562874655, 48.66188796655144]}}, {"type": "Feature", "properties": {"norad_id": 33396, "name": "THEOS", "group": "resource", "lat": -54.650570011449474, "lon": -134.21367534740364, "alt_km": 832.6851211972808, "timestamp": "2025-12-26T09:30:53.284540+00:00", "meta": {"OBJECT_NAME": "THEOS", "OBJECT_ID": "2008-049A", "EPOCH": "2025-12-26T03:20:10.735296", "MEAN_MOTION": 14.20099988, "ECCENTRICITY": 0.0001189, "INCLINATION": 98.5844, "RA_OF_ASC_NODE": 57.8319, "ARG_OF_PERICENTER": 93.8745, "MEAN_ANOMALY": 266.2567, "EPHEMERIS_TYPE": 0, "CLASSIFICATION_TYPE": "U", "NORAD_CAT_ID": 33396, "ELEMENT_SET_NO": 999, "REV_AT_EPOCH": 89340, "BSTAR": 0.00012087, "MEAN_MOTION_DOT": 2.15e-06, "MEAN_MOTION_DDOT": 0}, "tle": {"line1": "1 33396U 08049A   25360.13901314  .00000215  00000+0  12087-3 0  9991", "line2": "2 33396  98.5844  57.8319 0001189  93.8745 266.2567 14.20099988893400"}}, "geometry": {"type": "Point", "coordinates": [-134.21367534740364, -54.650570011449474]}}, {"type": "Feature", "properties": {"norad_id": 33412, "name": "COSMO-SKYMED 3", "group": "resource", "lat": -10.95692636426885, "lon": 29.489767234543585, "alt_km": 549.1080291142507, "timestamp": "2025-12-26T09:30:53.284552+00:00", "meta": {"OBJECT_NAME": "COSMO-SKYMED 3", "OBJECT_ID": "2008-054A", "EPOCH": "2025-12-26T03:53:06.706752", "MEAN_MOTION": 15.05469749, "ECCENTRICITY": 0.0017079, "INCLINATION": 97.8448, "RA_OF_ASC_NODE": 210.7809, "ARG_OF_PERICENTER": 128.3279, "MEAN_ANOMALY": 231.9485, "EPHEMERIS_TYPE": 0, "CLASSIFICATION_TYPE": "U", "NORAD_CAT_ID": 33412, "ELEMENT_SET_NO": 999, "REV_AT_EPOCH": 93089, "BSTAR": 0.00031508, "MEAN_MOTION_DOT": 4.477e-05, "MEAN_MOTION_DDOT": 0}, "tle": {"line1": "1 33412U 08054A   25360.16188318  .00004477  00000+0  31508-3 0  9993", "line2": "2 33412  97.8448 210.7809 0017079 128.3279 231.9485 15.05469749930899"}}, "geometry": {"type": "Point", "coordinates": [29.489767234543585, -10.95692636426885]}}, {"type": "Feature", "properties": {"norad_id": 33446, "name": "YAOGAN-4", "group": "resource", "lat": 42.46967696818779, "lon": 117.68361627661216, "alt_km": 624.0349132423617, "timestamp": "2025-12-26T09:30:53.284564+00:00", "meta": {"OBJECT_NAME": "YAOGAN-4", "OBJECT_ID": "2008-061A", "EPOCH": "2025-12-25T18:19:17.173344", "MEAN_MOTION": 14.8271976, "ECCENTRICITY": 0.00129661, "INCLINATION": 97.9198, "RA_OF_ASC_NODE": 289.7359, "ARG_OF_PERICENTER": 277.0684, "MEAN_ANOMALY": 82.9055, "EPHEMERIS_TYPE": 0, "CLASSIFICATION_TYPE": "U", "NORAD_CAT_ID": 33446, "ELEMENT_SET_NO": 999, "REV_AT_EPOCH": 91996, "BSTAR": 0.00018510552, "MEAN_MOTION_DOT": 1.442e-05, "MEAN_MOTION_DDOT": 0}, "tle": {"line1": "1 33446U 08061A   25359.76339321  .00001442  00000+0  18511-3 0  9992", "line2": "2 33446  97.9198 289.7359 0012966 277.0684  82.9055 14.82719760919964"}}, "geometry": {"type": "Point", "coordinates": [117.68361627661216, 42.46967696818779]}}]}